ONEWEB-0415             
1 51624U 22012C   24347.70853478 -.00000605  00000+0 -17700-2 0  9996
2 51624  87.8888 146.1118 0001272 106.8788 253.2479 13.10370753137068
ONEWEB-0416             
1 51625U 22012D   24347.87287696 -.00000334  00000+0 -99388-3 0  9990
2 51625  87.8899 146.0845 0001449  96.4772 263.6520 13.10377397137120
ONEWEB-0422             
1 51626U 22012E   24347.77894701  .00000037  00000+0  63014-4 0  9997
2 51626  87.9094 115.6991 0001066  72.8395 287.2854 13.17648589141192
ONEWEB-0423             
1 51627U 22012F   24347.62030390  .00000007  00000+0 -15475-4 0  9994
2 51627  87.9097 115.7344 0001575  96.2433 263.8878 13.17652548141069
ONEWEB-0425             
1 51628U 22012G   24347.50103210  .00000274  00000+0  74781-3 0  9993
2 51628  87.8894 146.1356 0001838  91.2378 268.8960 13.10380501137073
ONEWEB-0428             
1 51629U 22012H   24347.86290086 -.00000636  00000+0 -18587-2 0  9996
2 51629  87.8894 146.0822 0001209  93.0598 267.0668 13.10373998137086
ONEWEB-0434             
1 51631U 22012K   24347.50439925 -.00004515  00000+0 -12982-1 0  9999
2 51631  87.8842 146.1611 0002126  98.0825 262.0544 13.10349935137077
